{
    "links": {
        "self": "http://www.neowsapp.com/rest/v1/neo/3788092?api_key=iIulBulltgU6a56xZRHN4H3l9WmuAYTsLGpBGhQ2"
    },
    "id": "3788092",
    "neo_reference_id": "3788092",
    "name": "(2017 UT7)",
    "designation": "2017 UT7",
    "nasa_jpl_url": "http://ssd.jpl.nasa.gov/sbdb.cgi?sstr=3788092",
    "absolute_magnitude_h": 24.7,
    "estimated_diameter": {
        "kilometers": {
            "estimated_diameter_min": 0.0305179233,
            "estimated_diameter_max": 0.0682401509
        },
        "meters": {
            "estimated_diameter_min": 30.5179232594,
            "estimated_diameter_max": 68.2401509401
        },
        "miles": {
            "estimated_diameter_min": 0.0189629525,
            "estimated_diameter_max": 0.0424024508
        },
        "feet": {
            "estimated_diameter_min": 100.1244233463,
            "estimated_diameter_max": 223.8850168104
        }
    },
    "is_potentially_hazardous_asteroid": false,
    "close_approach_data": [
        {
            "close_approach_date": "2017-11-05",
            "close_approach_date_full": "2017-Nov-05 23:23",
            "epoch_date_close_approach": 1509924180000,
            "relative_velocity": {
                "kilometers_per_second": "8.4816809732",
                "kilometers_per_hour": "30534.0515036294",
                "miles_per_hour": "18972.6721690191"
            },
            "miss_distance": {
                "astronomical": "0.0738887562",
                "lunar": "28.7427261618",
                "kilometers": "11053600.544469294",
                "miles": "6868388.8869084972"
            },
            "orbiting_body": "Earth"
        }
    ],
    "orbital_data": {
        "orbit_id": "4",
        "orbit_determination_date": "2017-12-30 06:30:37",
        "first_observation_date": "2017-10-26",
        "last_observation_date": "2017-11-20",
        "data_arc_in_days": 25,
        "observations_used": 34,
        "orbit_uncertainty": "8",
        "minimum_orbit_intersection": ".0386314",
        "jupiter_tisserand_invariant": "3.354",
        "epoch_osculation": "2458055.5",
        "eccentricity": ".562907420113962",
        "semi_major_axis": "2.30847300317034",
        "inclination": "2.125937276176021",
        "ascending_node_longitude": "125.7829817915192",
        "orbital_period": "1281.1076568032",
        "perihelion_distance": "1.009016420552994",
        "perihelion_argument": "302.0017678945542",
        "aphelion_distance": "3.607929585787686",
        "perihelion_time": "2458081.613473960640",
        "mean_anomaly": "352.6619354931585",
        "mean_motion": ".2810068288080665",
        "equinox": "J2000",
        "orbit_class": {
            "orbit_class_type": "APO",
            "orbit_class_description": "Near-Earth asteroid orbits which cross the Earth’s orbit similar to that of 1862 Apollo",
            "orbit_class_range": "a (semi-major axis) > 1.0 AU; q (perihelion) < 1.017 AU"
        }
    },
    "is_sentry_object": false
}